RADUGA 32               
1 23448U 94087A   09091.41632731 -.00000087  00000-0  10000-3 0  1289
2 23448  10.0595  53.2457 0004315 144.1475 215.8808  1.00283465 69914
RADUGA-1 4              
1 25642U 99010A   09089.36052796 -.00000354  00000-0  10000-3 0  2363
2 25642   8.6803  70.2097 0003265 156.6361 203.4309  1.00290428 36933
RADUGA-1 5              
1 26477U 00049A   09091.73032304  .00000128  00000-0  10000-3 0  5227
2 26477   6.3178  68.0832 0002198 275.2597 153.8570  1.00284377 31462
RADUGA-1 7              
1 28194U 04010A   09092.01501255 -.00000194  00000-0  10000-3 0  1821
2 28194   3.6337  86.5533 0000991 300.6907 253.6960  1.00278840 18372
RADUGA-1M 1             
1 32373U 07058A   09092.02492203 -.00000051  00000-0  10000-3 0  3940
2 32373   0.0219 262.7558 0001534 157.5136 209.2103  1.00272914  5703
